OBJECT_NAME,OBJECT_ID,EPOCH,MEAN_MOTION,ECCENTRICITY,INCLINATION,RA_OF_ASC_NODE,ARG_OF_PERICENTER,MEAN_ANOMALY,EPHEMERIS_TYPE,CLASSIFICATION_TYPE,NORAD_CAT_ID,ELEMENT_SET_NO,REV_AT_EPOCH,BSTAR,MEAN_MOTION_DOT,MEAN_MOTION_DDOT
ONEWEB-0296,2021-075L,2026-07-21T03:49:37.860672,13.12442556,.00019398,87.8978,343.9145,87.2801,272.8549,0,U,49085,999,23903,.11841177E-2,.439E-5,0
ONEWEB-0297,2021-075M,2026-07-20T23:04:11.015040,13.12443103,.00018632,87.8968,343.9603,94.1971,265.9371,0,U,49086,999,23961,-.16871783E-2,-.594E-5,0
ONEWEB-0298,2021-075N,2026-07-20T23:36:33.105600,13.17650319,.00017137,87.9156,359.1441,91.2859,268.8468,0,U,49087,999,23807,-.77081498E-4,-.17E-6,0
ONEWEB-0299,2021-075P,2026-07-20T23:38:45.857472,13.17648429,.00017929,87.9164,359.1274,88.6335,271.5002,0,U,49088,999,23805,-.55652908E-4,-.9E-7,0
ONEWEB-0300,2021-075Q,2026-07-20T21:03:25.642368,13.12441996,.00014639,87.8980,343.9599,100.3461,259.7833,0,U,49089,999,23962,-.92584307E-3,-.32E-5,0
ONEWEB-0301,2021-075R,2026-07-21T02:09:35.829792,13.12442695,.00015631,87.8978,343.9153,103.6303,256.5000,0,U,49090,999,23901,.10757587E-2,.4E-5,0
ONEWEB-0302,2021-075S,2026-07-20T22:10:33.715776,13.12443495,.00021514,87.8972,343.9605,91.9880,268.1495,0,U,49091,999,23897,.11689824E-2,.433E-5,0
ONEWEB-0304,2021-075T,2026-07-21T04:30:21.625920,13.17648010,.00018375,87.9151,359.1066,89.7368,270.3974,0,U,49092,999,23805,.28413139E-3,.123E-5,0
ONEWEB-0305,2021-075U,2026-07-20T22:52:35.747328,13.17647594,.00017714,87.9161,359.1404,81.2995,278.8337,0,U,49093,999,23805,.10793543E-3,.55E-6,0
ONEWEB-0308,2021-075V,2026-07-21T03:30:06.619680,13.12449602,.00018504,87.8979,343.9094,90.2236,269.9105,0,U,49094,999,23901,-.27061154E-2,-.961E-5,0
ONEWEB-0309,2021-075W,2026-07-20T22:57:26.388288,13.17647472,.00023214,87.9153,359.1453,90.4109,269.7288,0,U,49095,999,23802,.33919686E-4,.26E-6,0
ONEWEB-0310,2021-075X,2026-07-20T22:22:42.976704,13.12442314,.00018753,87.8972,343.9699,97.0409,263.0932,0,U,49096,999,23961,.85767819E-3,.321E-5,0
ONEWEB-0311,2021-075Y,2026-07-21T04:35:13.047072,13.17648068,.00015805,87.9153,359.0986,82.1499,277.9812,0,U,49097,999,23810,.26846463E-4,.23E-6,0
ONEWEB-0312,2021-075Z,2026-07-21T03:07:44.642784,13.17649342,.00019324,87.9152,359.1207,84.6814,275.4538,0,U,49098,999,23807,.26023993E-3,.114E-5,0
ONEWEB-0313,2021-075AA,2026-07-20T21:46:46.489728,13.17647840,.00018173,87.9150,359.1699,90.9075,269.2265,0,U,49099,999,23803,-.30811848E-3,-.107E-5,0
ONEWEB-0314,2021-075AB,2026-07-21T04:15:45.660384,13.17647341,.00019756,87.9161,359.0931,82.4258,277.7098,0,U,49100,999,23804,.11168431E-3,.56E-6,0
ONEWEB-0315,2021-075AC,2026-07-20T21:43:41.226528,13.12443654,.00015236,87.8978,343.9424,89.7148,270.4155,0,U,49101,999,23959,.60887286E-4,.35E-6,0
ONEWEB-0316,2021-075AD,2026-07-21T01:49:04.444032,13.18686291,.00019834,87.9197,328.7178,99.1771,260.9586,0,U,49102,999,24167,.92104599E-4,.49E-6,0
ONEWEB-0317,2021-075AE,2026-07-20T21:48:34.146720,13.12443730,.00025424,87.8973,343.9650,103.8822,256.2590,0,U,49103,999,23961,.37115003E-3,.146E-5,0
ONEWEB-0318,2021-075AF,2026-07-20T20:16:13.928160,13.18686736,.00017756,87.9200,328.7661,94.8114,265.3221,0,U,49104,999,24160,.53123916E-4,.34E-6,0
ONEWEB-0319,2021-075AG,2026-07-20T23:09:36.141696,13.17647790,.00013962,87.9152,359.1488,85.0023,275.1268,0,U,49105,999,23805,-.13927927E-3,-.41E-6,0
ONEWEB-0323,2021-075AH,2026-07-21T02:51:04.058208,13.12443287,.00015021,87.8978,343.9051,82.1202,278.0097,0,U,49106,999,23900,-.11395952E-2,-.397E-5,0
ONEWEB-0329,2021-075AJ,2026-07-20T23:21:44.387424,13.17647540,.00018933,87.9156,359.1478,88.5362,271.5987,0,U,49107,999,23803,-.27575377E-3,-.94E-6,0
ONEWEB-0330,2021-075AK,2026-07-20T23:26:47.838912,13.17646854,.00019551,87.9155,359.1587,89.0928,271.0428,0,U,49108,999,23807,.55016557E-4,.34E-6,0
ONEWEB-0292,2021-083A,2026-07-20T20:03:55.119168,13.13470142,.00018081,87.8980,313.5421,99.0673,261.0660,0,U,49186,999,23534,.71097484E-3,.272E-5,0
ONEWEB-0303,2021-083B,2026-07-20T22:00:38.259072,13.18684287,.00017444,87.9199,328.7499,95.6883,264.4448,0,U,49187,999,23442,.11239063E-3,.57E-6,0
ONEWEB-0306,2021-083C,2026-07-21T01:24:36.183168,13.18685475,.00021744,87.9203,328.7111,100.1059,260.0319,0,U,49188,999,23448,-.98079586E-4,-.26E-6,0
ONEWEB-0307,2021-083D,2026-07-21T01:24:28.274976,13.13469037,.00018932,87.8980,313.4958,96.8210,263.3134,0,U,49189,999,23537,.49796226E-3,.195E-5,0
ONEWEB-0320,2021-083E,2026-07-21T01:53:43.062432,13.18683750,.00019772,87.9192,328.7216,99.3821,260.7535,0,U,49190,999,23444,-.15374573E-3,-.48E-6,0
ONEWEB-0321,2021-083F,2026-07-21T03:21:43.197984,13.20770658,.00021661,87.9176,267.6688,102.7808,257.3568,0,U,49191,999,24131,.20570103E-3,.97E-6,0
ONEWEB-0322,2021-083G,2026-07-21T01:18:23.098464,13.13470643,.00021577,87.8979,313.4963,111.4395,248.6965,0,U,49192,999,23536,.29264814E-3,.12E-5,0
ONEWEB-0324,2021-083H,2026-07-20T21:36:21.826368,13.18686266,.00020677,87.9207,328.7481,95.4082,264.7286,0,U,49193,999,23444,-.33424507E-3,-.119E-5,0
ONEWEB-0325,2021-083J,2026-07-21T01:19:43.514400,13.18687718,.00018538,87.9193,328.7222,100.4341,259.7000,0,U,49194,999,23447,.24963661E-4,.23E-6,0
ONEWEB-0326,2021-083K,2026-07-21T01:41:48.642432,13.18685819,.000165,87.9202,328.7199,95.1980,264.9341,0,U,49195,999,23446,-.81108741E-4,-.19E-6,0
ONEWEB-0327,2021-083L,2026-07-20T20:13:37.285824,13.18685934,.0001492,87.9192,328.7666,99.5707,260.5593,0,U,49196,999,23445,-.14778798E-4,.7E-7,0
ONEWEB-0328,2021-083M,2026-07-21T01:03:45.410976,13.13469970,.00020463,87.8989,313.4745,97.1779,262.9583,0,U,49197,999,23534,-.50570508E-3,-.172E-5,0
ONEWEB-0331,2021-083N,2026-07-20T21:53:21.669504,13.18686009,.00016361,87.9203,328.7451,90.9267,269.2052,0,U,49198,999,23445,-.2997608E-5,.12E-6,0
ONEWEB-0333,2021-083P,2026-07-20T19:27:21.230496,13.13470320,.00019021,87.8979,313.5445,101.8676,258.2667,0,U,49199,999,23532,-.49111989E-3,-.167E-5,0
ONEWEB-0334,2021-083Q,2026-07-21T03:42:19.419552,13.20769574,.00025996,87.9179,267.6763,112.8077,247.3331,0,U,49200,999,24127,.46795861E-4,.32E-6,0
ONEWEB-0335,2021-083R,2026-07-20T19:20:02.526720,13.13469053,.00018149,87.8980,313.5426,96.5463,263.5872,0,U,49201,999,23533,-.79655322E-3,-.278E-5,0
ONEWEB-0336,2021-083S,2026-07-20T20:28:17.958432,13.13468612,.00017674,87.8978,313.5281,93.0451,267.0881,0,U,49202,999,23533,.28752495E-3,.118E-5,0
ONEWEB-0337,2021-083T,2026-07-21T00:22:07.742496,13.13468743,.00019942,87.8978,313.5011,92.3363,267.7995,0,U,49203,999,23535,-.23220458E-3,-.72E-6,0
ONEWEB-0338,2021-083U,2026-07-21T03:09:35.544960,13.20771101,.00021836,87.9175,267.6827,104.9486,255.1889,0,U,49204,999,24129,.12965737E-3,.66E-6,0
ONEWEB-0339,2021-083V,2026-07-21T00:34:30.155232,13.13469316,.0002185,87.8981,313.4929,104.3044,255.8328,0,U,49205,999,23533,-.6960649E-3,-.241E-5,0
ONEWEB-0340,2021-083W,2026-07-20T21:33:55.774080,13.18684933,.0001842,87.9204,328.7539,95.1357,264.9985,0,U,49206,999,23441,-.2315531E-3,-.78E-6,0
ONEWEB-0341,2021-083X,2026-07-20T21:43:38.028000,13.18684453,.00022021,87.9197,328.7535,88.5756,271.5629,0,U,49207,999,23443,.36994894E-4,.27E-6,0
ONEWEB-0342,2021-083Y,2026-07-21T03:19:16.109760,13.20776878,.00021397,87.9187,267.6715,99.6705,260.4670,0,U,49208,999,24126,-.26488549E-2,-.1064E-4,0
ONEWEB-0343,2021-083Z,2026-07-21T01:34:17.944608,13.18686324,.00022828,87.9197,328.7204,103.7799,256.3587,0,U,49209,999,23450,-.38088898E-3,-.137E-5,0
ONEWEB-0344,2021-083AA,2026-07-21T00:27:10.430208,13.13469526,.00021591,87.8980,313.5064,89.5814,270.5562,0,U,49210,999,23533,-.20596145E-3,-.62E-6,0
ONEWEB-0345,2021-083AB,2026-07-21T00:15:00.029664,13.13469615,.00021642,87.8989,313.4938,93.0754,267.0623,0,U,49211,999,23534,.30234E-3,.123E-5,0
ONEWEB-0346,2021-083AC,2026-07-20T21:50:55.128192,13.18685692,.00013755,87.9194,328.7502,84.5566,275.5723,0,U,49212,999,23442,-.43892418E-3,-.16E-5,0
ONEWEB-0348,2021-083AD,2026-07-21T03:04:44.764032,13.20772943,.00019888,87.9176,267.6776,82.8130,277.3230,0,U,49213,999,24129,.20792791E-3,.98E-6,0
ONEWEB-0350,2021-083AE,2026-07-21T00:41:59.402400,13.13470477,.00018796,87.8983,313.4941,132.8783,227.2504,0,U,49214,999,23537,-.11523919E-2,-.408E-5,0
ONEWEB-0351,2021-083AF,2026-07-21T02:54:51.330816,13.20771172,.00026985,87.9180,267.6780,99.3215,260.8224,0,U,49215,999,24125,.20211984E-3,.95E-6,0
ONEWEB-0352,2021-083AG,2026-07-21T01:50:04.691616,13.13468478,.000234,87.8984,313.4892,104.0799,256.0591,0,U,49216,999,23547,.41341732E-3,.164E-5,0
ONEWEB-0354,2021-083AH,2026-07-21T03:33:50.495904,13.20769136,.00017649,87.9202,267.6763,74.6673,285.4655,0,U,49217,999,24129,.15017339E-2,.624E-5,0
ONEWEB-0355,2021-083AJ,2026-07-20T21:03:36.744768,13.13467706,.00021611,87.8979,313.5295,99.1524,260.9850,0,U,49218,999,23532,-.82359366E-3,-.288E-5,0
ONEWEB-0357,2021-083AK,2026-07-21T03:29:02.363136,13.20743802,.00013829,87.9223,267.6650,76.2490,283.8797,0,U,49219,999,24129,-.49514622E-2,-.1999E-4,0
ONEWEB-0332,2021-090A,2026-07-21T04:00:42.976512,13.14503572,.00020684,87.8964,282.9390,105.4090,254.7268,0,U,49279,999,23204,-.2501536E-3,-.8E-6,0
ONEWEB-0347,2021-090B,2026-07-21T03:14:26.743200,13.20770895,.00020438,87.9177,267.6762,104.9691,255.1669,0,U,49280,999,23552,.26826915E-3,.122E-5,0
ONEWEB-0349,2021-090C,2026-07-21T04:00:29.808288,13.20771062,.00020392,87.9180,267.6702,97.4860,262.6505,0,U,49281,999,23431,-.49509826E-4,-.7E-7,0
ONEWEB-0353,2021-090D,2026-07-21T03:49:18.475104,13.14503075,.0002043,87.8965,282.9364,106.8123,253.3231,0,U,49282,999,23204,.94225856E-4,.48E-6,0
ONEWEB-0356,2021-090E,2026-07-21T03:58:04.888704,13.20771155,.00012323,87.9178,267.6640,102.4133,257.7138,0,U,49283,999,23431,-.12637898E-3,-.38E-6,0
ONEWEB-0358,2021-090F,2026-07-21T03:01:05.708928,13.20770094,.00019405,87.9181,267.6796,95.4055,264.7299,0,U,49284,999,23503,.10225437E-3,.55E-6,0
ONEWEB-0359,2021-090G,2026-07-21T02:47:46.375872,13.20770365,.00020359,87.9175,267.6728,89.4079,270.7287,0,U,49285,999,23501,.10567202E-3,.56E-6,0
